{
  "links": {
    "next": "https://api.nasa.gov/neo/rest/v1/feed?start_date=2016-11-26&end_date=2016-11-26&detailed=true&api_key=DEMO_KEY",
    "prev": "https://api.nasa.gov/neo/rest/v1/feed?start_date=2016-11-24&end_date=2016-11-24&detailed=true&api_key=DEMO_KEY",
    "self": "https://api.nasa.gov/neo/rest/v1/feed?start_date=2016-11-25&end_date=2016-11-25&detailed=true&api_key=DEMO_KEY"
  },
  "element_count": 9,
  "near_earth_objects": {
    "2016-11-25": [
      {
        "links": {
          "self": "https://api.nasa.gov/neo/rest/v1/neo/2152931?api_key=DEMO_KEY"
        },
        "neo_reference_id": "2152931",
        "name": "152931 (2000 EA107)",
        "nasa_jpl_url": "http://ssd.jpl.nasa.gov/sbdb.cgi?sstr=2152931",
        "absolute_magnitude_h": 16,
        "estimated_diameter": {
          "kilometers": {
            "estimated_diameter_min": 1.6770846216,
            "estimated_diameter_max": 3.750075218
          },
          "meters": {
            "estimated_diameter_min": 1677.0846216284,
            "estimated_diameter_max": 3750.0752179805
          },
          "miles": {
            "estimated_diameter_min": 1.0420917484,
            "estimated_diameter_max": 2.3301879883
          },
          "feet": {
            "estimated_diameter_min": 5502.2463100232,
            "estimated_diameter_max": 12303.3967781592
          }
        },
        "is_potentially_hazardous_asteroid": false,
        "close_approach_data": [
          {
            "close_approach_date": "2016-11-25",
            "epoch_date_close_approach": 1480060800000,
            "relative_velocity": {
              "kilometers_per_second": "19.6595312266",
              "kilometers_per_hour": "70774.3124156052",
              "miles_per_hour": "43976.4054006854"
            },
            "miss_distance": {
              "astronomical": "0.2486445941",
              "lunar": "96.7227478027",
              "kilometers": "37196700",
              "miles": "23112958"
            },
            "orbiting_body": "Earth"
          }
        ],
        "orbital_data": {
          "orbit_id": "105",
          "orbit_determination_date": "2016-05-24 18:05:29",
          "orbit_uncertainty": "0",
          "minimum_orbit_intersection": ".161736",
          "jupiter_tisserand_invariant": "6.257",
          "epoch_osculation": "2457800.5",
          "eccentricity": ".4557838415831728",
          "semi_major_axis": ".929736574940265",
          "inclination": "28.57670474199695",
          "ascending_node_longitude": "52.90324428878309",
          "orbital_period": "327.4449529899116",
          "perihelion_distance": ".5059776671536096",
          "perihelion_argument": "278.0221339591808",
          "aphelion_distance": "1.35349548272692",
          "perihelion_time": "2457674.127231107213",
          "mean_anomaly": "138.9369308825628",
          "mean_motion": "1.099421434695594",
          "equinox": "J2000"
        }
      },
      {
        "links": {
          "self": "https://api.nasa.gov/neo/rest/v1/neo/2162215?api_key=DEMO_KEY"
        },
        "neo_reference_id": "2162215",
        "name": "162215 (1999 TL12)",
        "nasa_jpl_url": "http://ssd.jpl.nasa.gov/sbdb.cgi?sstr=2162215",
        "absolute_magnitude_h": 18.9,
        "estimated_diameter": {
          "kilometers": {
            "estimated_diameter_min": 0.4411182,
            "estimated_diameter_max": 0.9863702813
          },
          "meters": {
            "estimated_diameter_min": 441.1181999969,
            "estimated_diameter_max": 986.3702813054
          },
          "miles": {
            "estimated_diameter_min": 0.2740980571,
            "estimated_diameter_max": 0.6129018881
          },
          "feet": {
            "estimated_diameter_min": 1447.2382352778,
            "estimated_diameter_max": 3236.1230737181
          }
        },
        "is_potentially_hazardous_asteroid": false,
        "close_approach_data": [
          {
            "close_approach_date": "2016-11-25",
            "epoch_date_close_approach": 1480060800000,
            "relative_velocity": {
              "kilometers_per_second": "11.4990845884",
              "kilometers_per_hour": "41396.7045182191",
              "miles_per_hour": "25722.302315779"
            },
            "miss_distance": {
              "astronomical": "0.3363103974",
              "lunar": "130.8247375488",
              "kilometers": "50311320",
              "miles": "31262004"
            },
            "orbiting_body": "Earth"
          }
        ],
        "orbital_data": {
          "orbit_id": "43",
          "orbit_determination_date": "2016-11-14 06:16:34",
          "orbit_uncertainty": "0",
          "minimum_orbit_intersection": ".256511",
          "jupiter_tisserand_invariant": "5.594",
          "epoch_osculation": "2457800.5",
          "eccentricity": ".4366483260135782",
          "semi_major_axis": "1.08158584034015",
          "inclination": "17.33713492511658",
          "ascending_node_longitude": "202.3458843716749",
          "orbital_period": "410.8562675203895",
          "perihelion_distance": ".6093131937156345",
          "perihelion_argument": "346.7639120256396",
          "aphelion_distance": "1.553858486964666",
          "perihelion_time": "2457814.578853109390",
          "mean_anomaly": "347.6638437330667",
          "mean_motion": ".8762188348073195",
          "equinox": "J2000"
        }
      },
      {
        "links": {
          "self": "https://api.nasa.gov/neo/rest/v1/neo/3678632?api_key=DEMO_KEY"
        },
        "neo_reference_id": "3678632",
        "name": "(2014 ON344)",
        "nasa_jpl_url": "http://ssd.jpl.nasa.gov/sbdb.cgi?sstr=3678632",
        "absolute_magnitude_h": 22.5,
        "estimated_diameter": {
          "kilometers": {
            "estimated_diameter_min": 0.0840533402,
            "estimated_diameter_max": 0.1879489824
          },
          "meters": {
            "estimated_diameter_min": 84.0533402073,
            "estimated_diameter_max": 187.9489824394
          },
          "miles": {
            "estimated_diameter_min": 0.0522283081,
            "estimated_diameter_max": 0.1167860472
          },
          "feet": {
            "estimated_diameter_min": 275.7655606856,
            "estimated_diameter_max": 616.6305395464
          }
        },
        "is_potentially_hazardous_asteroid": false,
        "close_approach_data": [
          {
            "close_approach_date": "2016-11-25",
            "epoch_date_close_approach": 1480060800000,
            "relative_velocity": {
              "kilometers_per_second": "15.4976103062",
              "kilometers_per_hour": "55791.397102414",
              "miles_per_hour": "34666.6044939972"
            },
            "miss_distance": {
              "astronomical": "0.4409159653",
              "lunar": "171.5163116455",
              "kilometers": "65960092",
              "miles": "40985700"
            },
            "orbiting_body": "Earth"
          }
        ],
        "orbital_data": {
          "orbit_id": "10",
          "orbit_determination_date": "2016-08-08 06:18:48",
          "orbit_uncertainty": "1",
          "minimum_orbit_intersection": ".229244",
          "jupiter_tisserand_invariant": "5.930",
          "epoch_osculation": "2457800.5",
          "eccentricity": ".341669892380952",
          "semi_major_axis": "1.003395137502924",
          "inclination": "25.69352545483986",
          "ascending_node_longitude": "127.0969503012175",
          "orbital_period": "367.1186223875565",
          "perihelion_distance": ".6605652288567293",
          "perihelion_argument": "335.9342442230838",
          "aphelion_distance": "1.346225046149118",
          "perihelion_time": "2457735.215870579064",
          "mean_anomaly": "64.01823595515158",
          "mean_motion": ".980609476192571",
          "equinox": "J2000"
        }
      }
    ]
  }
}
